{"type": "FeatureCollection", "features": [ {"type": "Feature", "properties": {"norad_id": 30252, "name": "FENGYUN 1C DEB", "group": "fengyun-1c-debris", "lat": -45.440087275089624, "lon": 22.987967471006733, "alt_km": 881.6927412796213, "timestamp": "2025-12-25T07:41:09.998109+00:00", "meta": {"OBJECT_NAME": "FENGYUN 1C DEB", "OBJECT_ID": "1999-025XM", "EPOCH": "2025-12-24T20:34:28.178976", "MEAN_MOTION": 14.09729237, "ECCENTRICITY": 0.00663546, "INCLINATION": 98.7428, "RA_OF_ASC_NODE": 13.5481, "ARG_OF_PERICENTER": 207.0781, "MEAN_ANOMALY": 277.81, "EPHEMERIS_TYPE": 0, "CLASSIFICATION_TYPE": "U", "NORAD_CAT_ID": 30252, "ELEMENT_SET_NO": 999, "REV_AT_EPOCH": 97136, "BSTAR": 0.00046004963, "MEAN_MOTION_DOT": 7.81e-06, "MEAN_MOTION_DDOT": 0}, "tle": {"line1": "1 30252U 99025XM  25358.85727059  .00000781  00000+0  46005-3 0  9996", "line2": "2 30252  98.7428  13.5481 0066354 207.0781 277.8100 14.09729237971368"}}, "geometry": {"type": "Point", "coordinates": [22.987967471006733, -45.440087275089624]}}, {"type": "Feature", "properties": {"norad_id": 30253, "name": "FENGYUN 1C DEB", "group": "fengyun-1c-debris", "lat": -70.37307685272465, "lon": -119.27128830977166, "alt_km": 1061.493037403773, "timestamp": "2025-12-25T07:41:09.998122+00:00", "meta": {"OBJECT_NAME": "FENGYUN 1C DEB", "OBJECT_ID": "1999-025XN", "EPOCH": "2025-12-24T04:31:02.640864", "MEAN_MOTION": 13.73225958, "ECCENTRICITY": 0.02209078, "INCLINATION": 98.7514, "RA_OF_ASC_NODE": 85.2829, "ARG_OF_PERICENTER": 10.5112, "MEAN_ANOMALY": 50.8123, "EPHEMERIS_TYPE": 0, "CLASSIFICATION_TYPE": "U", "NORAD_CAT_ID": 30253, "ELEMENT_SET_NO": 999, "REV_AT_EPOCH": 94171, "BSTAR": 0.0018356791, "MEAN_MOTION_DOT": 1.988e-05, "MEAN_MOTION_DDOT": 0}, "tle": {"line1": "1 30253U 99025XN  25358.18822501  .00001988  00000+0  18357-2 0  9999", "line2": "2 30253  98.7514  85.2829 0220907  10.5112  50.8123 13.73225958941719"}}, "geometry": {"type": "Point", "coordinates": [-119.27128830977166, -70.37307685272465]}}, {"type": "Feature", "properties": {"norad_id": 30257, "name": "FENGYUN 1C DEB", "group": "fengyun-1c-debris", "lat": -46.79240041307624, "lon": 6.969356274445044, "alt_km": 882.7526064065241, "timestamp": "2025-12-25T07:41:09.998132+00:00", "meta": {"OBJECT_NAME": "FENGYUN 1C DEB", "OBJECT_ID": "1999-025XS", "EPOCH": "2025-12-23T23:38:27.524256", "MEAN_MOTION": 14.09729761, "ECCENTRICITY": 0.0059623, "INCLINATION": 98.7497, "RA_OF_ASC_NODE": 356.2349, "ARG_OF_PERICENTER": 68.0147, "MEAN_ANOMALY": 312.7192, "EPHEMERIS_TYPE": 0, "CLASSIFICATION_TYPE": "U", "NORAD_CAT_ID": 30257, "ELEMENT_SET_NO": 999, "REV_AT_EPOCH": 97376, "BSTAR": 0.00012712, "MEAN_MOTION_DOT": 1.84e-06, "MEAN_MOTION_DDOT": 0}, "tle": {"line1": "1 30257U 99025XS  25357.98504079  .00000184  00000+0  12712-3 0  9994", "line2": "2 30257  98.7497 356.2349 0059623  68.0147 312.7192 14.09729761973769"}}, "geometry": {"type": "Point", "coordinates": [6.969356274445044, -46.79240041307624]}}, {"type": "Feature", "properties": {"norad_id": 30259, "name": "FENGYUN 1C DEB", "group": "fengyun-1c-debris", "lat": 81.11384613544432, "lon": 131.079805789241, "alt_km": 845.8777202392348, "timestamp": "2025-12-25T07:41:09.998142+00:00", "meta": {"OBJECT_NAME": "FENGYUN 1C DEB", "OBJECT_ID": "1999-025XU", "EPOCH": "2025-12-24T13:19:21.054720", "MEAN_MOTION": 14.5156264, "ECCENTRICITY": 0.02420423, "INCLINATION": 98.7607, "RA_OF_ASC_NODE": 210.7886, "ARG_OF_PERICENTER": 232.3388, "MEAN_ANOMALY": 181.8832, "EPHEMERIS_TYPE": 0, "CLASSIFICATION_TYPE": "U", "NORAD_CAT_ID": 30259, "ELEMENT_SET_NO": 999, "REV_AT_EPOCH": 99646, "BSTAR": 0.00045281792, "MEAN_MOTION_DOT": 2.592e-05, "MEAN_MOTION_DDOT": 0}, "tle": {"line1": "1 30259U 99025XU  25358.55510480  .00002592  00000+0  45282-3 0  9996", "line2": "2 30259  98.7607 210.7886 0242042 232.3388 181.8832 14.51562640996462"}}, "geometry": {"type": "Point", "coordinates": [131.079805789241, 81.11384613544432]}}, {"type": "Feature", "properties": {"norad_id": 30263, "name": "FENGYUN 1C DEB", "group": "fengyun-1c-debris", "lat": 65.63233659261752, "lon": -45.43385872833921, "alt_km": 970.0708037664044, "timestamp": "2025-12-25T07:41:09.998153+00:00", "meta": {"OBJECT_NAME": "FENGYUN 1C DEB", "OBJECT_ID": "1999-025XY", "EPOCH": "2025-12-20T07:28:46.628256", "MEAN_MOTION": 14.01494898, "ECCENTRICITY": 0.01444826, "INCLINATION": 98.9351, "RA_OF_ASC_NODE": 109.3367, "ARG_OF_PERICENTER": 339.2977, "MEAN_ANOMALY": 76.0019, "EPHEMERIS_TYPE": 0, "CLASSIFICATION_TYPE": "U", "NORAD_CAT_ID": 30263, "ELEMENT_SET_NO": 999, "REV_AT_EPOCH": 96131, "BSTAR": 0.00070985244, "MEAN_MOTION_DOT": 1.131e-05, "MEAN_MOTION_DDOT": 0}, "tle": {"line1": "1 30263U 99025XY  25354.31165079  .00001131  00000+0  70985-3 0  9997", "line2": "2 30263  98.9351 109.3367 0144482 339.2977  76.0019 14.01494898961314"}}, "geometry": {"type": "Point", "coordinates": [-45.43385872833921, 65.63233659261752]}}, {"type": "Feature", "properties": {"norad_id": 30264, "name": "FENGYUN 1C DEB", "group": "fengyun-1c-debris", "lat": -38.69254716667465, "lon": -132.90526775822374, "alt_km": 807.7252060597584, "timestamp": "2025-12-25T07:41:09.998163+00:00", "meta": {"OBJECT_NAME": "FENGYUN 1C DEB", "OBJECT_ID": "1999-025XZ", "EPOCH": "2025-12-22T10:28:44.483808", "MEAN_MOTION": 14.07676846, "ECCENTRICITY": 0.01079727, "INCLINATION": 98.9696, "RA_OF_ASC_NODE": 51.4986, "ARG_OF_PERICENTER": 260.1244, "MEAN_ANOMALY": 114.5431, "EPHEMERIS_TYPE": 0, "CLASSIFICATION_TYPE": "U", "NORAD_CAT_ID": 30264, "ELEMENT_SET_NO": 999, "REV_AT_EPOCH": 96694, "BSTAR": 0.001164435, "MEAN_MOTION_DOT": 2.031e-05, "MEAN_MOTION_DDOT": 0}, "tle": {"line1": "1 30264U 99025XZ  25356.43662597  .00002031  00000+0  11644-2 0  9996", "line2": "2 30264  98.9696  51.4986 0107972 260.1244 114.5431 14.07676846966944"}}, "geometry": {"type": "Point", "coordinates": [-132.90526775822374, -38.69254716667465]}}, {"type": "Feature", "properties": {"norad_id": 30265, "name": "FENGYUN 1C DEB", "group": "fengyun-1c-debris", "lat": 29.631834363350098, "lon": 104.00616120355691, "alt_km": 684.4833875967461, "timestamp": "2025-12-25T07:41:09.998173+00:00", "meta": {"OBJECT_NAME": "FENGYUN 1C DEB", "OBJECT_ID": "1999-025YA", "EPOCH": "2025-12-24T07:08:31.977312", "MEAN_MOTION": 14.58836322, "ECCENTRICITY": 0.00279912, "INCLINATION": 98.6636, "RA_OF_ASC_NODE": 107.9155, "ARG_OF_PERICENTER": 336.4672, "MEAN_ANOMALY": 85.6435, "EPHEMERIS_TYPE": 0, "CLASSIFICATION_TYPE": "U", "NORAD_CAT_ID": 30265, "ELEMENT_SET_NO": 999, "REV_AT_EPOCH": 98570, "BSTAR": 0.0023514454, "MEAN_MOTION_DOT": 0.00011025, "MEAN_MOTION_DDOT": 0}, "tle": {"line1": "1 30265U 99025YA  25358.29759233  .00011025  00000+0  23514-2 0  9999", "line2": "2 30265  98.6636 107.9155 0027991 336.4672  85.6435 14.58836322985705"}}, "geometry": {"type": "Point", "coordinates": [104.00616120355691, 29.631834363350098]}}, {"type": "Feature", "properties": {"norad_id": 30266, "name": "FENGYUN 1C DEB", "group": "fengyun-1c-debris", "lat": -49.31374868376362, "lon": -126.97250506087013, "alt_km": 904.0709778731434, "timestamp": "2025-12-25T07:41:09.998183+00:00", "meta": {"OBJECT_NAME": "FENGYUN 1C DEB", "OBJECT_ID": "1999-025YB", "EPOCH": "2025-12-24T22:58:32.281248", "MEAN_MOTION": 14.15137662, "ECCENTRICITY": 0.00817373, "INCLINATION": 99.0415, "RA_OF_ASC_NODE": 63.3331, "ARG_OF_PERICENTER": 31.1154, "MEAN_ANOMALY": 151.3338, "EPHEMERIS_TYPE": 0, "CLASSIFICATION_TYPE": "U", "NORAD_CAT_ID": 30266, "ELEMENT_SET_NO": 999, "REV_AT_EPOCH": 96962, "BSTAR": 0.0012249873, "MEAN_MOTION_DOT": 2.41e-05, "MEAN_MOTION_DDOT": 0}, "tle": {"line1": "1 30266U 99025YB  25358.95731807  .00002410  00000+0  12250-2 0  9993", "line2": "2 30266  99.0415  63.3331 0081737  31.1154 151.3338 14.15137662969629"}}, "geometry": {"type": "Point", "coordinates": [-126.97250506087013, -49.31374868376362]}}, {"type": "Feature", "properties": {"norad_id": 30267, "name": "FENGYUN 1C DEB", "group": "fengyun-1c-debris", "lat": 9.826628336813203, "lon": -107.8953546631015, "alt_km": 780.1741359664711, "timestamp": "2025-12-25T07:41:09.998193+00:00", "meta": {"OBJECT_NAME": "FENGYUN 1C DEB", "OBJECT_ID": "1999-025YC", "EPOCH": "2025-12-24T15:42:23.316192", "MEAN_MOTION": 14.23683657, "ECCENTRICITY": 0.00599257, "INCLINATION": 98.8489, "RA_OF_ASC_NODE": 69.8888, "ARG_OF_PERICENTER": 209.3751, "MEAN_ANOMALY": 150.4054, "EPHEMERIS_TYPE": 0, "CLASSIFICATION_TYPE": "U", "NORAD_CAT_ID": 30267, "ELEMENT_SET_NO": 999, "REV_AT_EPOCH": 97464, "BSTAR": 0.0015165173, "MEAN_MOTION_DOT": 3.481e-05, "MEAN_MOTION_DDOT": 0}, "tle": {"line1": "1 30267U 99025YC  25358.65443653  .00003481  00000+0  15165-2 0  9997", "line2": "2 30267  98.8489  69.8888 0059925 209.3751 150.4054 14.23683657974644"}}, "geometry": {"type": "Point", "coordinates": [-107.8953546631015, 9.826628336813203]}}, {"type": "Feature", "properties": {"norad_id": 30270, "name": "FENGYUN 1C DEB", "group": "fengyun-1c-debris", "lat": -39.91724046759223, "lon": 20.01643707829214, "alt_km": 867.0084227760872, "timestamp": "2025-12-25T07:41:09.998203+00:00", "meta": {"OBJECT_NAME": "FENGYUN 1C DEB", "OBJECT_ID": "1999-025YF", "EPOCH": "2025-12-24T13:44:13.734816", "MEAN_MOTION": 14.11276315, "ECCENTRICITY": 0.00078907, "INCLINATION": 98.7018, "RA_OF_ASC_NODE": 11.93, "ARG_OF_PERICENTER": 128.1855, "MEAN_ANOMALY": 353.9339, "EPHEMERIS_TYPE": 0, "CLASSIFICATION_TYPE": "U", "NORAD_CAT_ID": 30270, "ELEMENT_SET_NO": 999, "REV_AT_EPOCH": 97528, "BSTAR": 0.00013633204, "MEAN_MOTION_DOT": 2.04e-06, "MEAN_MOTION_DDOT": 0}, "tle": {"line1": "1 30270U 99025YF  25358.57238119  .00000204  00000+0  13633-3 0  9990", "line2": "2 30270  98.7018  11.9300 0007890 128.1855 353.9339 14.11276315975282"}}, "geometry": {"type": "Point", "coordinates": [20.01643707829214, -39.91724046759223]}}]}